{"spkid": "50736413", "covariance": {"data": [["7.30170523712049E-12", "-6.136602378672113E-12", "-7.280736831108282E-10", "-2.341164126370368E-10", "2.264408288801793E-10", "2.933119776550243E-11"], ["-6.136602378672113E-12", "5.157410217068017E-12", "6.118976506552317E-10", "1.967543424067559E-10", "-1.903035951437542E-10", "-2.465065924089181E-11"], ["-7.280736831108282E-10", "6.118976506552317E-10", "7.263044472261097E-8", "2.348787480064199E-8", "-2.270165595956771E-8", "-2.926623842865916E-9"], ["-2.341164126370368E-10", "1.967543424067559E-10", "2.348787480064199E-8", "6.228452571080165E-8", "-6.186992459925166E-8", "-3.442366870750594E-9"], ["2.264408288801793E-10", "-1.903035951437542E-10", "-2.270165595956771E-8", "-6.186992459925166E-8", "6.147829235037682E-8", "3.406742165269269E-9"], ["2.933119776550243E-11", "-2.465065924089181E-11", "-2.926623842865916E-9", "-3.442366870750594E-9", "3.406742165269269E-9", "2.369791092640454E-10"]], "elements": [{"label": "e", "name": "e", "sigma": 2.70216676708165e-06, "title": "eccentricity", "value": ".4255196228387077", "units": null}, {"name": "q", "sigma": 2.27099322259403e-06, "units": "au", "title": "perihelion distance", "value": ".4820514966536033", "label": "q"}, {"units": "TDB", "title": "time of perihelion passage", "value": "2458853.957360390154", "name": "tp", "sigma": 0.000269500361266198, "label": "tp"}, {"units": "deg", "title": "longitude of the ascending node", "value": "282.2445756263455", "name": "om", "sigma": 0.000249568679346591, "label": "node"}, {"value": "299.7728045529233", "title": "argument of perihelion", "units": "deg", "name": "w", "sigma": 0.000247948164644098, "label": "peri"}, {"units": "deg", "title": "inclination", "value": ".9771659614261983", "name": "i", "sigma": 1.53941258038268e-05, "label": "i"}], "labels": ["e", "q", "tp", "node", "peri", "i"], "epoch": "2458932.5"}, "elements": [{"label": "e", "title": "eccentricity", "value": ".4250115126368975", "units": null, "name": "e", "sigma": "2.7073E-6"}, {"name": "a", "sigma": "7.1375E-9", "units": "au", "value": ".8405689751263643", "title": "semi-major axis", "label": "a"}, {"label": "q", "units": "au", "value": ".4833174835322616", "title": "perihelion distance", "sigma": "2.2796E-6", "name": "q"}, {"value": ".9915640565710521", "title": "inclination; angle with respect to x-y ecliptic plane", "units": "deg", "sigma": "1.5165E-5", "name": "i", "label": "i"}, {"label": "node", "units": "deg", "title": "longitude of the ascending node", "value": "281.661789896815", "sigma": ".00023816", "name": "om"}, {"label": "peri", "name": "w", "sigma": ".00023824", "title": "argument of perihelion", "value": "300.1418785909093", "units": "deg"}, {"label": "M", "name": "ma", "sigma": ".0003346", "title": "mean anomaly", "value": "127.4888509041779", "units": "deg"}, {"label": "tp", "sigma": ".00026043", "name": "tp", "units": "TDB", "title": "time of perihelion passage", "value": "2461100.815377752573"}, {"units": "d", "title": "sidereal orbital period", "value": "281.4870771409371", "sigma": "3.5853E-6", "name": "per", "label": "period"}, {"label": "n", "sigma": "1.629E-8", "name": "n", "units": "deg/d", "title": "mean motion", "value": "1.278921944326959"}, {"label": "Q", "value": "1.197820466720467", "title": "aphelion distance", "units": "au", "name": "ad", "sigma": "1.0171E-8"}], "epoch": "2461200.5"}